     2.100          NAVIGATION                              RINEX VERSION / TYPE
fic2rin                                 06/26/2009 01:47:14 PGM / RUN BY / DATE
                                                            END OF HEADER
26 09  6 25  8  0  0.0  .641662627459D-04  .454747350886D-12  .000000000000D+00
     .570000000000D+02  .141312500000D+03  .363550857638D-08 -.251448621428D+01
     .728853046894D-05  .203495312016D-01  .606663525105D-05  .515490097618D+04
     .374400000000D+06  .204890966415D-06  .125173378252D+01 -.931322574615D-07
     .992512632284D+00  .280218750000D+03  .101924149148D+01 -.745923927869D-08
     .273225666660D-09  .100000000000D+01  .153700000000D+04  .000000000000D+00
     .240000000000D+01  .000000000000D+00 -.651925802231D-08  .570000000000D+02
     .367206000000D+06  .400000000000D+01
27 09  6 25  8  0  0.0  .603902153671D-04  .318323145621D-11  .000000000000D+00
     .690000000000D+02 -.115000000000D+02  .433018036939D-08 -.119103689010D+00
    -.491738319397D-06  .213009797735D-01  .154413282871D-05  .515377427101D+04
     .374400000000D+06 -.415369868279D-06  .218587466097D+01  .126659870148D-06
     .974610173751D+00  .360812500000D+03 -.158072942791D+01 -.865536053051D-08
     .121433629627D-10  .100000000000D+01  .153700000000D+04  .000000000000D+00
     .340000000000D+01  .000000000000D+00 -.419095158577D-08  .690000000000D+02
     .367206000000D+06  .400000000000D+01
28 09  6 25  8  0  0.0 -.256639905274D-04 -.227373675443D-12  .000000000000D+00
     .630000000000D+02 -.126031250000D+03  .418696011798D-08  .731316453397D+00
    -.666454434395D-05  .149080269039D-01  .896118581295D-05  .515365252304D+04
     .374400000000D+06 -.249594449997D-06 -.296216046418D+01 -.447034835815D-07
     .967307927458D+00  .214187500000D+03 -.202260813473D+01 -.808819404860D-08
    -.132148361653D-09  .100000000000D+01  .153700000000D+04  .000000000000D+00
     .340000000000D+01  .000000000000D+00 -.107102096081D-07  .630000000000D+02
     .367206000000D+06  .400000000000D+01
29 09  6 25  8  0  0.0  .334535725415D-04  .363797880709D-11  .000000000000D+00
     .140000000000D+02  .188750000000D+02  .461519224128D-08  .278967931540D+01
     .659376382828D-06  .339024106506D-02  .103563070297D-04  .515365939713D+04
     .374400000000D+06  .223517417908D-07 -.192000568035D+01  .279396772385D-07
     .959701183544D+00  .179375000000D+03 -.130681209523D+01 -.789711466081D-08
     .713958310658D-09  .100000000000D+01  .153700000000D+04  .000000000000D+00
     .240000000000D+01  .000000000000D+00 -.884756445885D-08  .140000000000D+02
     .367206000000D+06  .400000000000D+01
30 09  6 25  8  0  0.0  .156198162585D-03  .272848410532D-11  .000000000000D+00
     .440000000000D+02 -.130906250000D+03  .446054294237D-08  .122623511016D+01
    -.692345201969D-05  .115504581481D-01  .919960439205D-05  .515358647156D+04
     .374400000000D+06 -.208616256714D-06 -.303548647677D+01 -.149011611938D-06
     .952748517617D+00  .198218750000D+03  .142101860013D+01 -.822784272268D-08
    -.414302971667D-10  .100000000000D+01  .153700000000D+04  .000000000000D+00
     .240000000000D+01  .000000000000D+00 -.838190317154D-08  .440000000000D+02
     .367206000000D+06  .400000000000D+01
31 09  6 25  8  0  0.0 -.628903508186D-04 -.682121026330D-12  .000000000000D+00
     .750000000000D+02 -.308125000000D+02  .442375569575D-08 -.270927908449D+01
    -.150129199028D-05  .700803694781D-02  .305473804474D-06  .515373612213D+04
     .374400000000D+06  .651925802231D-07  .224187631343D+01 -.186264514923D-08
     .973051191694D+00  .382000000000D+03 -.113698864727D+01 -.834427614402D-08
    -.875036448780D-10  .100000000000D+01  .153700000000D+04  .000000000000D+00
     .240000000000D+01  .000000000000D+00 -.130385160446D-07  .750000000000D+02
     .367206000000D+06  .400000000000D+01
32 09  6 25  8  0  0.0  .241933856159D-03 -.579802872380D-11  .000000000000D+00
     .300000000000D+01  .373125000000D+02  .427946397114D-08 -.175797969695D+01
     .188313424587D-05  .132168704877D-01  .119227916002D-04  .515379684448D+04
     .374400000000D+06 -.258907675743D-06  .233899234956D+00  .221654772758D-06
     .963998348869D+00  .150500000000D+03 -.114915585397D+01 -.779603902203D-08
    -.720029992139D-09  .100000000000D+01  .153700000000D+04  .000000000000D+00
     .240000000000D+01  .000000000000D+00 -.325962901115D-08  .259000000000D+03
     .367206000000D+06  .400000000000D+01
 9 09  6 25  7 59 44.0  .630076974630D-04  .204636307899D-11  .000000000000D+00
     .590000000000D+02 -.215000000000D+02  .416481633846D-08  .279632295158D+01
    -.102445483208D-05  .206958682975D-01 -.894069671631D-07  .515363568497D+04
     .374384000000D+06  .242143869400D-06  .221004079490D+01 -.670552253723D-07
     .976576328335D+00  .387031250000D+03  .148571479460D+01 -.795997442203D-08
    -.978612191697D-10  .100000000000D+01  .153700000000D+04  .000000000000D+00
     .240000000000D+01  .000000000000D+00 -.558793544769D-08  .590000000000D+02
     .370566000000D+06  .400000000000D+01
17 09  6 25  7 59 44.0  .664656981826D-04  .216004991671D-11  .000000000000D+00
     .190000000000D+02  .000000000000D+00  .466876590141D-08  .200534930456D+00
     .428408384323D-07  .454303179868D-02  .103265047073D-04  .515369735336D+04
     .374384000000D+06  .447034835815D-07 -.192820912954D+01  .391155481339D-07
     .959473541787D+00  .183906250000D+03 -.263412851608D+01 -.795854579109D-08
     .677171064036D-09  .100000000000D+01  .153700000000D+04  .000000000000D+00
     .240000000000D+01  .000000000000D+00 -.102445483208D-07  .190000000000D+02
     .372606000000D+06  .400000000000D+01
 9 09  6 25  9 59 44.0  .630221329629D-04  .204636307899D-11  .000000000000D+00
     .600000000000D+02 -.181250000000D+02  .414695845175D-08 -.243666986828D+01
    -.743195414543D-06  .206952921581D-01  .160187482834D-06  .515363665581D+04
     .381584000000D+06  .247731804848D-06  .220998297891D+01  .596046447754D-07
     .976576022586D+00  .382312500000D+03  .148572356772D+01 -.795961726429D-08
    -.428589281035D-11  .100000000000D+01  .153700000000D+04  .000000000000D+00
     .240000000000D+01  .000000000000D+00 -.558793544769D-08  .600000000000D+02
     .374406000000D+06  .400000000000D+01
17 09  6 25  9 59 44.0  .664815306664D-04  .216004991671D-11  .000000000000D+00
     .200000000000D+02 -.115625000000D+01  .452661712320D-08  .125043885718D+01
    -.217929482460D-06  .454356183764D-02  .105705112219D-04  .515369961739D+04
     .381584000000D+06  .167638063431D-07 -.192826636035D+01  .819563865662D-07
     .959478395749D+00  .172312500000D+03 -.263386540003D+01 -.794533095493D-08
     .682528430049D-09  .100000000000D+01  .153700000000D+04  .000000000000D+00
     .240000000000D+01  .000000000000D+00 -.102445483208D-07  .200000000000D+02
     .374406000000D+06  .400000000000D+01
 1 09  6 25 10  0  0.0 -.723903067410D-04  .477484718431D-11  .000000000000D+00
     .180000000000D+02 -.125125000000D+03  .531593571577D-08  .275203099867D+01
    -.645965337753D-05  .354365899693D-02  .901706516743D-05  .515376590347D+04
     .381600000000D+06  .335276126862D-07 -.299962087786D+01 -.745058059692D-08
     .961556659597D+00  .206406250000D+03  .912500030775D+00 -.787211361942D-08
    -.821462788651D-11  .100000000000D+01  .153700000000D+04  .000000000000D+00
     .240000000000D+01  .630000000000D+02 -.130385160446D-07  .180000000000D+02
     .374406000000D+06  .400000000000D+01
 2 09  6 25 10  0  0.0  .157505739480D-03  .136424205266D-11  .000000000000D+00
     .280000000000D+02  .346875000000D+01  .571952395542D-08  .212714416889D+00
     .197440385818D-06  .905388034880D-02  .501051545143D-05  .515365966988D+04
     .381600000000D+06  .689178705215D-07 -.911718004509D+00 -.763684511185D-07
     .940863058700D+00  .272187500000D+03  .285011500380D+01 -.864428864075D-08
     .696457581682D-10  .100000000000D+01  .153700000000D+04  .000000000000D+00
     .240000000000D+01  .000000000000D+00 -.172294676304D-07  .280000000000D+02
     .374406000000D+06  .400000000000D+01
 3 09  6 25 10  0  0.0  .411361921579D-03  .511590769747D-11  .000000000000D+00
     .430000000000D+02  .440625000000D+01  .525807616283D-08 -.958194620766D-01
     .281259417534D-06  .119795559440D-01  .111237168312D-04  .515363949585D+04
     .381600000000D+06 -.931322574615D-08 -.206019152423D+01  .229105353355D-06
     .926194380582D+00  .150406250000D+03  .906962091480D+00 -.848463913356D-08
     .718958518937D-09  .100000000000D+01  .153700000000D+04  .000000000000D+00
     .240000000000D+01  .000000000000D+00 -.419095158577D-08  .430000000000D+02
     .374406000000D+06  .400000000000D+01
 4 09  6 25 10  0  0.0 -.147600192577D-03 -.161435309565D-10  .000000000000D+00
     .750000000000D+02  .200000000000D+01  .560844790008D-08  .308874058768D+01
     .707805156708D-07  .859291548841D-02  .530667603016D-05  .515374870682D+04
     .381600000000D+06 -.119209289551D-06 -.893375763544D+00 -.106170773506D-06
     .940081870686D+00  .268687500000D+03  .489326261809D+00 -.834356182855D-08
     .132148361653D-10  .100000000000D+01  .153700000000D+04  .000000000000D+00
     .240000000000D+01  .000000000000D+00 -.605359673500D-08  .750000000000D+02
     .374406000000D+06  .400000000000D+01
 6 09  6 25 10  0  0.0  .172632280737D-03  .125055521494D-10  .000000000000D+00
     .290000000000D+02  .118750000000D+02  .502235205827D-08  .232046865409D+01
     .506639480591D-06  .598821172025D-02  .107679516077D-04  .515370403099D+04
     .381600000000D+06  .596046447754D-07 -.199235342792D+01  .409781932831D-07
     .933609853809D+00  .157281250000D+03 -.133135172823D+01 -.808426531353D-08
     .693243162075D-09  .100000000000D+01  .153700000000D+04  .000000000000D+00
     .240000000000D+01  .000000000000D+00 -.465661287308D-08  .290000000000D+02
     .374406000000D+06  .400000000000D+01
